{
  "type": "FeatureCollection",
  "features": [
    {
      "type": "Feature",
      "properties": {
        "norad_id": 37781,
        "name": "HAIYANG-2A",
        "group": "resource",
        "lat": 47.73824385751967,
        "lon": 179.74146827266486,
        "alt_km": 962.9259833274709,
        "timestamp": "2025-12-14T09:36:22.691298+00:00",
        "meta_object_name": "HAIYANG-2A",
        "meta_object_id": "2011-043A",
        "meta_epoch": "2025-12-13T15:33:23.090688",
        "meta_mean_motion": 13.78834514,
        "meta_eccentricity": 0.00016639,
        "meta_inclination": 99.3383,
        "meta_ra_of_asc_node": 348.5687,
        "meta_arg_of_pericenter": 81.7566,
        "meta_mean_anomaly": 278.3774,
        "meta_ephemeris_type": 0,
        "meta_classification_type": "U",
        "meta_norad_cat_id": 37781,
        "meta_element_set_no": 999,
        "meta_rev_at_epoch": 72111,
        "meta_bstar": -6.7072149e-05,
        "meta_mean_motion_dot": -1.12e-06,
        "meta_mean_motion_ddot": 0,
        "tle_line1": "1 37781U 11043A   25347.64818392 -.00000112  00000+0 -67072-4 0  9998",
        "tle_line2": "2 37781  99.3383 348.5687 0001663  81.7566 278.3774 13.78834514721117"
      },
      "geometry": {
        "type": "Point",
        "coordinates": [
          179.74146827266486,
          47.73824385751967
        ]
      }
    },
    {
      "type": "Feature",
      "properties": {
        "norad_id": 37791,
        "name": "RASAT",
        "group": "resource",
        "lat": 58.60523126250895,
        "lon": 64.19856836081566,
        "alt_km": 646.6650528008868,
        "timestamp": "2025-12-14T09:36:22.691308+00:00",
        "meta_object_name": "RASAT",
        "meta_object_id": "2011-044D",
        "meta_epoch": "2025-12-13T17:33:28.657152",
        "meta_mean_motion": 14.67914135,
        "meta_eccentricity": 0.00218586,
        "meta_inclination": 98.0645,
        "meta_ra_of_asc_node": 76.974,
        "meta_arg_of_pericenter": 62.0603,
        "meta_mean_anomaly": 66.0324,
        "meta_ephemeris_type": 0,
        "meta_classification_type": "U",
        "meta_norad_cat_id": 37791,
        "meta_element_set_no": 999,
        "meta_rev_at_epoch": 76597,
        "meta_bstar": 0.00026323163,
        "meta_mean_motion_dot": 1.462e-05,
        "meta_mean_motion_ddot": 0,
        "tle_line1": "1 37791U 11044D   25347.73158168  .00001462  00000+0  26323-3 0  9998",
        "tle_line2": "2 37791  98.0645  76.9740 0021858  62.0603  66.0324 14.67914135765971"
      },
      "geometry": {
        "type": "Point",
        "coordinates": [
          64.19856836081566,
          58.60523126250895
        ]
      }
    },
    {
      "type": "Feature",
      "properties": {
        "norad_id": 37841,
        "name": "SRMSAT",
        "group": "resource",
        "lat": -18.76376100215532,
        "lon": -12.79832393912983,
        "alt_km": 852.6712101725207,
        "timestamp": "2025-12-14T09:36:22.691319+00:00",
        "meta_object_name": "SRMSAT",
        "meta_object_id": "2011-058D",
        "meta_epoch": "2025-12-13T15:35:14.637408",
        "meta_mean_motion": 14.11511811,
        "meta_eccentricity": 0.00117776,
        "meta_inclination": 19.9712,
        "meta_ra_of_asc_node": 102.4443,
        "meta_arg_of_pericenter": 323.4918,
        "meta_mean_anomaly": 63.7335,
        "meta_ephemeris_type": 0,
        "meta_classification_type": "U",
        "meta_norad_cat_id": 37841,
        "meta_element_set_no": 999,
        "meta_rev_at_epoch": 73157,
        "meta_bstar": 0.0001231682,
        "meta_mean_motion_dot": 4.92e-06,
        "meta_mean_motion_ddot": 0,
        "tle_line1": "1 37841U 11058D   25347.64947497  .00000492  00000+0  12317-3 0  9990",
        "tle_line2": "2 37841  19.9712 102.4443 0011777 323.4918  63.7335 14.11511811731579"
      },
      "geometry": {
        "type": "Point",
        "coordinates": [
          -12.79832393912983,
          -18.76376100215532
        ]
      }
    },
    {
      "type": "Feature",
      "properties": {
        "norad_id": 38012,
        "name": "PLEIADES 1A",
        "group": "resource",
        "lat": 20.703359032194072,
        "lon": -115.74025403847803,
        "alt_km": 697.7111191571194,
        "timestamp": "2025-12-14T09:36:22.691329+00:00",
        "meta_object_name": "PLEIADES 1A",
        "meta_object_id": "2011-076F",
        "meta_epoch": "2025-12-13T17:06:36.650016",
        "meta_mean_motion": 14.58563946,
        "meta_eccentricity": 0.00012839,
        "meta_inclination": 98.1819,
        "meta_ra_of_asc_node": 60.4661,
        "meta_arg_of_pericenter": 74.269,
        "meta_mean_anomaly": 77.7223,
        "meta_ephemeris_type": 0,
        "meta_classification_type": "U",
        "meta_norad_cat_id": 38012,
        "meta_element_set_no": 999,
        "meta_rev_at_epoch": 74495,
        "meta_bstar": 0.00019290877,
        "meta_mean_motion_dot": 8.51e-06,
        "meta_mean_motion_ddot": 0,
        "tle_line1": "1 38012U 11076F   25347.71292419  .00000851  00000+0  19291-3 0  9993",
        "tle_line2": "2 38012  98.1819  60.4661 0001283  74.2690  77.7223 14.58563946744955"
      },
      "geometry": {
        "type": "Point",
        "coordinates": [
          -115.74025403847803,
          20.703359032194072
        ]
      }
    },
    {
      "type": "Feature",
      "properties": {
        "norad_id": 38038,
        "name": "ZIYUAN 1-02C (ZY 1-02C)",
        "group": "resource",
        "lat": -55.04562297320219,
        "lon": 66.6355542913771,
        "alt_km": 777.1619951820358,
        "timestamp": "2025-12-14T09:36:22.691340+00:00",
        "meta_object_name": "ZIYUAN 1-02C (ZY 1-02C)",
        "meta_object_id": "2011-079A",
        "meta_epoch": "2025-12-13T16:14:48.213024",
        "meta_mean_motion": 14.38014728,
        "meta_eccentricity": 0.00072208,
        "meta_inclination": 98.4329,
        "meta_ra_of_asc_node": 53.6729,
        "meta_arg_of_pericenter": 135.8307,
        "meta_mean_anomaly": 25.9365,
        "meta_ephemeris_type": 0,
        "meta_classification_type": "U",
        "meta_norad_cat_id": 38038,
        "meta_element_set_no": 999,
        "meta_rev_at_epoch": 73254,
        "meta_bstar": 0.00033282155,
        "meta_mean_motion_dot": 9.64e-06,
        "meta_mean_motion_ddot": 0,
        "tle_line1": "1 38038U 11079A   25347.67694691  .00000964  00000+0  33282-3 0  9998",
        "tle_line2": "2 38038  98.4329  53.6729 0007220 135.8307  25.9365 14.38014728732548"
      },
      "geometry": {
        "type": "Point",
        "coordinates": [
          66.6355542913771,
          -55.04562297320219
        ]
      }
    },
    {
      "type": "Feature",
      "properties": {
        "norad_id": 38046,
        "name": "ZIYUAN 3-1 (ZY 3-1)",
        "group": "resource",
        "lat": 20.143618461142534,
        "lon": -122.49400835385507,
        "alt_km": 363.5350639163971,
        "timestamp": "2025-12-14T09:36:22.691350+00:00",
        "meta_object_name": "ZIYUAN 3-1 (ZY 3-1)",
        "meta_object_id": "2012-001A",
        "meta_epoch": "2025-12-13T16:05:20.406048",
        "meta_mean_motion": 15.687576,
        "meta_eccentricity": 0.00017819,
        "meta_inclination": 97.1756,
        "meta_ra_of_asc_node": 54.1098,
        "meta_arg_of_pericenter": 347.309,
        "meta_mean_anomaly": 12.8127,
        "meta_ephemeris_type": 0,
        "meta_classification_type": "U",
        "meta_norad_cat_id": 38046,
        "meta_element_set_no": 999,
        "meta_rev_at_epoch": 77511,
        "meta_bstar": 0.00071012316,
        "meta_mean_motion_dot": 0.00081501,
        "meta_mean_motion_ddot": 0,
        "tle_line1": "1 38046U 12001A   25347.67037507  .00081501  00000+0  71012-3 0  9999",
        "tle_line2": "2 38046  97.1756  54.1098 0001781 347.3090  12.8127 15.68757600775115"
      },
      "geometry": {
        "type": "Point",
        "coordinates": [
          -122.49400835385507,
          20.143618461142534
        ]
      }
    },
    {
      "type": "Feature",
      "properties": {
        "norad_id": 38338,
        "name": "ARIRANG-3 (KOMPSAT-3)",
        "group": "resource",
        "lat": 73.08109772276683,
        "lon": -85.80122943590872,
        "alt_km": 681.3731553559928,
        "timestamp": "2025-12-14T09:36:22.691360+00:00",
        "meta_object_name": "ARIRANG-3 (KOMPSAT-3)",
        "meta_object_id": "2012-025B",
        "meta_epoch": "2025-12-13T15:11:30.888096",
        "meta_mean_motion": 14.61714332,
        "meta_eccentricity": 0.00053039,
        "meta_inclination": 98.3323,
        "meta_ra_of_asc_node": 302.2291,
        "meta_arg_of_pericenter": 335.9727,
        "meta_mean_anomaly": 24.1226,
        "meta_ephemeris_type": 0,
        "meta_classification_type": "U",
        "meta_norad_cat_id": 38338,
        "meta_element_set_no": 999,
        "meta_rev_at_epoch": 72423,
        "meta_bstar": 0.00018751706,
        "meta_mean_motion_dot": 8.86e-06,
        "meta_mean_motion_ddot": 0,
        "tle_line1": "1 38338U 12025B   25347.63299639  .00000886  00000+0  18752-3 0  9990",
        "tle_line2": "2 38338  98.3323 302.2291 0005303 335.9727  24.1226 14.61714332724238"
      },
      "geometry": {
        "type": "Point",
        "coordinates": [
          -85.80122943590872,
          73.08109772276683
        ]
      }
    }
  ]
}